[{"OBJECT_NAME":"STARLINK-6290","OBJECT_ID":"2023-099A","EPOCH":"2026-03-09T13:30:49.248864","MEAN_MOTION":15.02535354,"ECCENTRICITY":0.00015527,"INCLINATION":43.0031,"RA_OF_ASC_NODE":249.9992,"ARG_OF_PERICENTER":274.8014,"MEAN_ANOMALY":85.2651,"EPHEMERIS_TYPE":0,"CLASSIFICATION_TYPE":"U","NORAD_CAT_ID":57328,"ELEMENT_SET_NO":999,"REV_AT_EPOCH":14700,"BSTAR":-1.9158735e-5,"MEAN_MOTION_DOT":-4.62e-6,"MEAN_MOTION_DDOT":0},{"OBJECT_NAME":"PEGASUS DEB","OBJECT_ID":"1994-029AEZ","EPOCH":"2026-03-07T11:19:28.799040","MEAN_MOTION":14.72051152,"ECCENTRICITY":0.01604515,"INCLINATION":81.6595,"RA_OF_ASC_NODE":342.3991,"ARG_OF_PERICENTER":98.387,"MEAN_ANOMALY":263.5562,"EPHEMERIS_TYPE":0,"CLASSIFICATION_TYPE":"U","NORAD_CAT_ID":39314,"ELEMENT_SET_NO":999,"REV_AT_EPOCH":64575,"BSTAR":0.00096584038,"MEAN_MOTION_DOT":7.465e-5,"MEAN_MOTION_DDOT":0}]
